CCSDS_OMM_VERS = 2.0
CREATION_DATE  = 
ORIGINATOR     = 

OBJECT_NAME    = H-2A R/B
OBJECT_ID      = 2006-002B
CENTER_NAME    = EARTH
REF_FRAME      = TEME
TIME_SYSTEM    = UTC
MEAN_ELEMENT_THEORY = SGP/SGP4

EPOCH          = 2026-04-03T22:38:15.679392
MEAN_MOTION    = 15.17031674
ECCENTRICITY   = .00524628
INCLINATION    = 98.2464
RA_OF_ASC_NODE = 243.1568
ARG_OF_PERICENTER = 154.8782
MEAN_ANOMALY   = 205.5019

EPHEMERIS_TYPE = 0
CLASSIFICATION_TYPE = U
NORAD_CAT_ID   = 28932
ELEMENT_SET_NO = 999
REV_AT_EPOCH   = 9826
BSTAR          = .90159491E-3
MEAN_MOTION_DOT = .18427E-3
MEAN_MOTION_DDOT = 0

CCSDS_OMM_VERS = 2.0
CREATION_DATE  = 
ORIGINATOR     = 

OBJECT_NAME    = RESURS-DK 1
OBJECT_ID      = 2006-021A
CENTER_NAME    = EARTH
REF_FRAME      = TEME
TIME_SYSTEM    = UTC
MEAN_ELEMENT_THEORY = SGP/SGP4

EPOCH          = 2026-04-03T14:16:56.380800
MEAN_MOTION    = 15.12902821
ECCENTRICITY   = .0001899
INCLINATION    = 69.9335
RA_OF_ASC_NODE = 172.5971
ARG_OF_PERICENTER = 37.3825
MEAN_ANOMALY   = 322.7473

EPHEMERIS_TYPE = 0
CLASSIFICATION_TYPE = U
NORAD_CAT_ID   = 29228
ELEMENT_SET_NO = 999
REV_AT_EPOCH   = 9129
BSTAR          = .24586E-3
MEAN_MOTION_DOT = .4233E-4
MEAN_MOTION_DDOT = 0

CCSDS_OMM_VERS = 2.0
CREATION_DATE  = 
ORIGINATOR     = 

OBJECT_NAME    = CZ-4B R/B
OBJECT_ID      = 2006-046C
CENTER_NAME    = EARTH
REF_FRAME      = TEME
TIME_SYSTEM    = UTC
MEAN_ELEMENT_THEORY = SGP/SGP4

EPOCH          = 2026-04-03T16:10:45.314112
MEAN_MOTION    = 15.17174491
ECCENTRICITY   = .00332782
INCLINATION    = 97.5537
RA_OF_ASC_NODE = 138.5131
ARG_OF_PERICENTER = 178.3377
MEAN_ANOMALY   = 181.7973

EPHEMERIS_TYPE = 0
CLASSIFICATION_TYPE = U
NORAD_CAT_ID   = 29507
ELEMENT_SET_NO = 999
REV_AT_EPOCH   = 6383
BSTAR          = .46326824E-3
MEAN_MOTION_DOT = .9266E-4
MEAN_MOTION_DDOT = 0

CCSDS_OMM_VERS = 2.0
CREATION_DATE  = 
ORIGINATOR     = 

OBJECT_NAME    = CZ-2C R/B
OBJECT_ID      = 2007-010B
CENTER_NAME    = EARTH
REF_FRAME      = TEME
TIME_SYSTEM    = UTC
MEAN_ELEMENT_THEORY = SGP/SGP4

EPOCH          = 2026-04-03T21:02:21.141312
MEAN_MOTION    = 14.20256166
ECCENTRICITY   = .00583211
INCLINATION    = 98.4005
RA_OF_ASC_NODE = 205.8963
ARG_OF_PERICENTER = 220.0699
MEAN_ANOMALY   = 139.6170

EPHEMERIS_TYPE = 0
CLASSIFICATION_TYPE = U
NORAD_CAT_ID   = 31114
ELEMENT_SET_NO = 999
REV_AT_EPOCH   = 98329
BSTAR          = .12509531E-3
MEAN_MOTION_DOT = .231E-5
MEAN_MOTION_DDOT = 0

CCSDS_OMM_VERS = 2.0
CREATION_DATE  = 
ORIGINATOR     = 

OBJECT_NAME    = COSMO-SKYMED 1
OBJECT_ID      = 2007-023A
CENTER_NAME    = EARTH
REF_FRAME      = TEME
TIME_SYSTEM    = UTC
MEAN_ELEMENT_THEORY = SGP/SGP4

EPOCH          = 2026-04-03T22:29:03.096096
MEAN_MOTION    = 14.96733477
ECCENTRICITY   = .0001551
INCLINATION    = 97.8868
RA_OF_ASC_NODE = 285.1753
ARG_OF_PERICENTER = 100.5887
MEAN_ANOMALY   = 259.5509

EPHEMERIS_TYPE = 0
CLASSIFICATION_TYPE = U
NORAD_CAT_ID   = 31598
ELEMENT_SET_NO = 999
REV_AT_EPOCH   = 1868
BSTAR          = .62685456E-3
MEAN_MOTION_DOT = .7108E-4
MEAN_MOTION_DDOT = 0

CCSDS_OMM_VERS = 2.0
CREATION_DATE  = 
ORIGINATOR     = 

OBJECT_NAME    = COSMOS 2428
OBJECT_ID      = 2007-029A
CENTER_NAME    = EARTH
REF_FRAME      = TEME
TIME_SYSTEM    = UTC
MEAN_ELEMENT_THEORY = SGP/SGP4

EPOCH          = 2026-04-03T14:18:26.506368
MEAN_MOTION    = 14.12948958
ECCENTRICITY   = .0009697
INCLINATION    = 70.9424
RA_OF_ASC_NODE = 151.0698
ARG_OF_PERICENTER = 251.2339
MEAN_ANOMALY   = 108.7730

EPHEMERIS_TYPE = 0
CLASSIFICATION_TYPE = U
NORAD_CAT_ID   = 31792
ELEMENT_SET_NO = 999
REV_AT_EPOCH   = 96761
BSTAR          = .31289E-4
MEAN_MOTION_DOT = .1E-6
MEAN_MOTION_DDOT = 0

CCSDS_OMM_VERS = 2.0
CREATION_DATE  = 
ORIGINATOR     = 

OBJECT_NAME    = SL-16 R/B
OBJECT_ID      = 2007-029B
CENTER_NAME    = EARTH
REF_FRAME      = TEME
TIME_SYSTEM    = UTC
MEAN_ELEMENT_THEORY = SGP/SGP4

EPOCH          = 2026-04-03T12:44:09.642624
MEAN_MOTION    = 14.14843981
ECCENTRICITY   = .00028908
INCLINATION    = 70.9740
RA_OF_ASC_NODE = 120.1684
ARG_OF_PERICENTER = 276.9700
MEAN_ANOMALY   = 193.7472

EPHEMERIS_TYPE = 0
CLASSIFICATION_TYPE = U
NORAD_CAT_ID   = 31793
ELEMENT_SET_NO = 999
REV_AT_EPOCH   = 96888
BSTAR          = -.13257789E-4
MEAN_MOTION_DOT = -.73E-6
MEAN_MOTION_DDOT = 0

CCSDS_OMM_VERS = 2.0
CREATION_DATE  = 
ORIGINATOR     = 

OBJECT_NAME    = KORONAS-FOTON
OBJECT_ID      = 2009-003A
CENTER_NAME    = EARTH
REF_FRAME      = TEME
TIME_SYSTEM    = UTC
MEAN_ELEMENT_THEORY = SGP/SGP4

EPOCH          = 2026-04-03T21:58:48.815328
MEAN_MOTION    = 15.44061625
ECCENTRICITY   = .00114618
INCLINATION    = 82.4284
RA_OF_ASC_NODE = 249.6340
ARG_OF_PERICENTER = 67.4802
MEAN_ANOMALY   = 292.7657

EPHEMERIS_TYPE = 0
CLASSIFICATION_TYPE = U
NORAD_CAT_ID   = 33504
ELEMENT_SET_NO = 999
REV_AT_EPOCH   = 94963
BSTAR          = .53118645E-3
MEAN_MOTION_DOT = .24385E-3
MEAN_MOTION_DDOT = 0

CCSDS_OMM_VERS = 2.0
CREATION_DATE  = 
ORIGINATOR     = 

OBJECT_NAME    = CZ-2C R/B
OBJECT_ID      = 2011-030B
CENTER_NAME    = EARTH
REF_FRAME      = TEME
TIME_SYSTEM    = UTC
MEAN_ELEMENT_THEORY = SGP/SGP4

EPOCH          = 2026-04-03T21:00:21.301056
MEAN_MOTION    = 14.81315501
ECCENTRICITY   = .00509251
INCLINATION    = 97.8589
RA_OF_ASC_NODE = 50.6430
ARG_OF_PERICENTER = 268.4412
MEAN_ANOMALY   = 148.7353

EPHEMERIS_TYPE = 0
CLASSIFICATION_TYPE = U
NORAD_CAT_ID   = 37731
ELEMENT_SET_NO = 999
REV_AT_EPOCH   = 79382
BSTAR          = .32106651E-3
MEAN_MOTION_DOT = .2507E-4
MEAN_MOTION_DDOT = 0

CCSDS_OMM_VERS = 2.0
CREATION_DATE  = 
ORIGINATOR     = 

OBJECT_NAME    = H-2A R/B
OBJECT_ID      = 2012-025E
CENTER_NAME    = EARTH
REF_FRAME      = TEME
TIME_SYSTEM    = UTC
MEAN_ELEMENT_THEORY = SGP/SGP4

EPOCH          = 2026-04-03T21:21:40.447008
MEAN_MOTION    = 14.95351172
ECCENTRICITY   = .00432261
INCLINATION    = 98.4773
RA_OF_ASC_NODE = 62.9643
ARG_OF_PERICENTER = 229.4419
MEAN_ANOMALY   = 130.3033

EPHEMERIS_TYPE = 0
CLASSIFICATION_TYPE = U
NORAD_CAT_ID   = 38341
ELEMENT_SET_NO = 999
REV_AT_EPOCH   = 75198
BSTAR          = .43150824E-3
MEAN_MOTION_DOT = .4781E-4
MEAN_MOTION_DDOT = 0

CCSDS_OMM_VERS = 2.0
CREATION_DATE  = 
ORIGINATOR     = 

OBJECT_NAME    = SHIJIAN-16 (SJ-16)
OBJECT_ID      = 2013-057A
CENTER_NAME    = EARTH
REF_FRAME      = TEME
TIME_SYSTEM    = UTC
MEAN_ELEMENT_THEORY = SGP/SGP4

EPOCH          = 2026-04-03T23:15:09.962784
MEAN_MOTION    = 14.92441968
ECCENTRICITY   = .00153439
INCLINATION    = 74.9714
RA_OF_ASC_NODE = 137.2326
ARG_OF_PERICENTER = 46.9104
MEAN_ANOMALY   = 313.3365

EPHEMERIS_TYPE = 0
CLASSIFICATION_TYPE = U
NORAD_CAT_ID   = 39358
ELEMENT_SET_NO = 999
REV_AT_EPOCH   = 67527
BSTAR          = .20408985E-3
MEAN_MOTION_DOT = .2068E-4
MEAN_MOTION_DDOT = 0

CCSDS_OMM_VERS = 2.0
CREATION_DATE  = 
ORIGINATOR     = 

OBJECT_NAME    = SL-4 R/B
OBJECT_ID      = 2014-021B
CENTER_NAME    = EARTH
REF_FRAME      = TEME
TIME_SYSTEM    = UTC
MEAN_ELEMENT_THEORY = SGP/SGP4

EPOCH          = 2026-04-03T17:57:42.956640
MEAN_MOTION    = 15.40122549
ECCENTRICITY   = .00945201
INCLINATION    = 51.6063
RA_OF_ASC_NODE = 214.9494
ARG_OF_PERICENTER = 194.4221
MEAN_ANOMALY   = 165.4063

EPHEMERIS_TYPE = 0
CLASSIFICATION_TYPE = U
NORAD_CAT_ID   = 39679
ELEMENT_SET_NO = 999
REV_AT_EPOCH   = 66013
BSTAR          = .54336188E-3
MEAN_MOTION_DOT = .2556E-3
MEAN_MOTION_DDOT = 0

